STARLINK-4800           
1 53854U 22114AN  26068.85593735 -.00000663  00000+0 -23586-4 0  9996
2 53854  53.2176 283.6078 0001351  91.7853 268.3293 15.08840104193139
KUIPER-00148            
1 65769U 25217H   26068.27522507  .00015783  00000+0  98730-3 0  9995
2 65769  51.8794  26.5769 0008108 351.8096   8.2745 15.09536529 25078
